https://ssd.jpl.nasa.gov/api/horizons.api?format=text&COMMAND=%27199%27&CENTER=%27@sun%27&MAKE_EPHEM=%27YES%27&EPHEM_TYPE=%27VECTORS%27&START_TIME=%272005-01-01%27&STOP_TIME=%272025-01-01%27&STEP_SIZE=%271%20d%27&REF_PLANE=%27ECLIPTIC%27

API VERSION: 1.2
API SOURCE: NASA/JPL Horizons API

*******************************************************************************
 Revised: April 12, 2021             Mercury                            199 / 1

 PHYSICAL DATA (updated 2024-Mar-04):
  Vol. Mean Radius (km) =  2439.4+-0.1    Density (g cm^-3)     = 5.427
  Mass x10^23 (kg)      =     3.302       Volume (x10^10 km^3)  = 6.085  
  Sidereal rot. period  =    58.6463 d    Sid. rot. rate (rad/s)= 0.00000124001
  Mean solar day        =   175.9421 d    Core radius (km)      = ~1600 
  Geometric Albedo      =     0.106       Surface emissivity    = 0.77+-0.06
  GM (km^3/s^2)         = 22031.86855     Equatorial radius, Re = 2440.53 km
  GM 1-sigma (km^3/s^2) =                 Mass ratio (Sun/plnt) = 6023682
  Mom. of Inertia       =     0.33        Equ. gravity  m/s^2   = 3.701     
  Atmos. pressure (bar) = < 5x10^-15      Max. angular diam.    = 11.0"   
  Mean Temperature (K)  = 440             Visual mag. V(1,0)    = -0.42 
  Obliquity to orbit[1] =  2.11' +/- 0.1' Hill's sphere rad. Rp = 94.4 
  Sidereal orb. per.    =  0.2408467 y    Mean Orbit vel.  km/s = 47.362 
  Sidereal orb. per.    = 87.969257  d    Escape vel. km/s      =  4.435
                                 Perihelion  Aphelion    Mean
  Solar Constant (W/m^2)         14462       6278        9126
  Maximum Planetary IR (W/m^2)   12700       5500        8000
  Minimum Planetary IR (W/m^2)   6           6           6
*******************************************************************************


*******************************************************************************
Ephemeris / API_USER Mon May  5 13:26:04 2025 Pasadena, USA      / Horizons
*******************************************************************************
Target body name: Mercury (199)                   {source: DE441}
Center body name: Sun (10)                        {source: DE441}
Center-site name: BODY CENTER
*******************************************************************************
Start time      : A.D. 2005-Jan-01 00:00:00.0000 TDB
Stop  time      : A.D. 2025-Jan-01 00:00:00.0000 TDB
Step-size       : 1440 minutes
*******************************************************************************
Center geodetic : 0.0, 0.0, 0.0                   {E-lon(deg),Lat(deg),Alt(km)}
Center cylindric: 0.0, 0.0, 0.0                   {E-lon(deg),Dxy(km),Dz(km)}
Center radii    : 695700.0, 695700.0, 695700.0 km {Equator_a, b, pole_c}
Output units    : KM-S
Calendar mode   : Mixed Julian/Gregorian
Output type     : GEOMETRIC cartesian states
Output format   : 3 (position, velocity, LT, range, range-rate)
Reference frame : Ecliptic of J2000.0
*******************************************************************************
JDTDB
   X     Y     Z
   VX    VY    VZ
   LT    RG    RR
*******************************************************************************
$$SOE
2457258.500000000 = A.D. 2015-Aug-24 00:00:00.0000 TDB 
 X =-3.312169326576294E+07 Y =-6.063849809175723E+07 Z =-1.916021203826699E+06
 VX= 3.293304335925382E+01 VY=-2.100510289079641E+01 VZ=-4.737759540926081E+00
 LT= 2.305636227194009E+02 RG= 6.912123518043384E+07 RR= 2.777690218430035E+00
2457259.500000000 = A.D. 2015-Aug-25 00:00:00.0000 TDB 
 X =-3.022819001174346E+07 Y =-6.236180566426127E+07 Z =-2.322296307208505E+06
 VX= 3.402779946739346E+01 VY=-1.887971998662000E+01 VZ=-4.664533009274433E+00
 LT= 2.312956463464873E+02 RG= 6.934069034291215E+07 RR= 2.301780784303922E+00
2457260.500000000 = A.D. 2015-Aug-26 00:00:00.0000 TDB 
 X =-2.724485951277043E+07 Y =-6.389982910519387E+07 Z =-2.721673053908341E+06
 VX= 3.501247900327841E+01 VY=-1.671666878975473E+01 VZ=-4.578129624727076E+00
 LT= 2.318901036085598E+02 RG= 6.951890414668480E+07 RR= 1.823135459742047E+00
2457261.500000000 = A.D. 2015-Aug-27 00:00:00.0000 TDB 
 X =-2.418118935052909E+07 Y =-6.524945303800280E+07 Z =-3.113026448170479E+06
 VX= 3.588757750108816E+01 VY=-1.451913157019616E+01 VZ=-4.478854872927804E+00
 LT= 2.323462960679823E+02 RG= 6.965566720541613E+07 RR= 1.342372904959686E+00
2457262.500000000 = A.D. 2015-Aug-28 00:00:00.0000 TDB 
 X =-2.104663424294505E+07 Y =-6.640782751997943E+07 Z =-3.495256197895791E+06
 VX= 3.665335804252342E+01 VY=-1.229007752863302E+01 VZ=-4.366975503456485E+00
 LT= 2.326636986584615E+02 RG= 6.975082210819148E+07 RR= 8.600791304423646E-01
2457263.500000000 = A.D. 2015-Aug-29 00:00:00.0000 TDB 
 X =-1.785063665532362E+07 Y =-6.737235146564046E+07 Z =-3.867283469212420E+06
 VX= 3.730983929347062E+01 VY=-1.003230493874756E+01 VZ=-4.242721875688854E+00
 LT= 2.328419515829945E+02 RG= 6.980426099058288E+07 RR= 3.768165044450051E-01
2457264.500000000 = A.D. 2015-Aug-30 00:00:00.0000 TDB 
 X =-1.460264838820051E+07 Y =-6.814065964673452E+07 Z =-4.228047843683358E+06
 VX= 3.785678479613976E+01 VY=-7.748481886182921E+00 VZ=-4.106290305175180E+00
 LT= 2.328808547561406E+02 RG= 6.981592386848436E+07 RR=-1.068675771482553E-01
2457265.500000000 = A.D. 2015-Aug-31 00:00:00.0000 TDB 
 X =-1.131215304815821E+07 Y =-6.871061317084041E+07 Z =-4.576504478741080E+06
 VX= 3.829369319141122E+01 VY=-5.441186143224531E+00 VZ=-3.957845424741832E+00
 LT= 2.327803647110593E+02 RG= 6.978579771086493E+07 RR=-5.904322358116318E-01
2457266.500000000 = A.D. 2015-Sep-01 00:00:00.0000 TDB 
 X =-7.988689332029718E+06 Y =-6.908029338756382E+07 Z =-4.911621473566711E+06
 VX= 3.861978913597223E+01 VY=-3.112944729489798E+00 VZ=-3.797522583681677E+00
 LT= 2.325405939268723E+02 RG= 6.971391623811692E+07 RR=-1.073334749111041E+00
2457267.500000000 = A.D. 2015-Sep-02 00:00:00.0000 TDB 
 X =-4.641875071590275E+06 Y =-6.924799921948612E+07 Z =-5.232377445033938E+06
 VX= 3.883401476290534E+01 VY=-7.662737234792923E-01 VZ=-3.625430317303024E+00
 LT= 2.321618125666806E+02 RG= 6.960036044310044E+07 RR=-1.555022162851782E+00
2457268.500000000 = A.D. 2015-Sep-03 00:00:00.0000 TDB 
 X =-1.281431995370121E+06 Y =-6.921224796460803E+07 Z =-5.537759321516395E+06
 VX= 3.893502161638132E+01 VY= 1.596281091130540E+00 VZ=-3.441652928183690E+00
 LT= 2.316444526512528E+02 RG= 6.944525984238370E+07 RR=-2.034922756088232E+00
2457269.500000000 = A.D. 2015-Sep-04 00:00:00.0000 TDB 
 X = 2.082788833374684E+06 Y =-6.897177966848539E+07 Z =-5.826760366340194E+06
 VX= 3.892116307473947E+01 VY= 3.972102136360466E+00 VZ=-3.246253230127786E+00
 LT= 2.309891147282928E+02 RG= 6.924879447563890E+07 RR=-2.512437237251040E+00
2457270.500000000 = A.D. 2015-Sep-05 00:00:00.0000 TDB 
 X = 5.440780948528636E+06 Y =-6.852556521803710E+07 Z =-6.098378447519988E+06
 VX= 3.879048736543340E+01 VY= 6.358455870182761E+00 VZ=-3.039275516432231E+00
 LT= 2.301965771325599E+02 RG= 6.901119768175672E+07 RR=-2.986929547597675E+00
2457271.500000000 = A.D. 2015-Sep-06 00:00:00.0000 TDB 
 X = 8.782355841946142E+06 Y =-6.787281836558467E+07 Z =-6.351614576244567E+06
 VX= 3.854073137432190E+01 VY= 8.752445863368306E+00 VZ=-2.820748826013222E+00
 LT= 2.292678079681650E+02 RG= 6.873275969104818E+07 RR=-3.457717145505212E+00
2457272.500000000 = A.D. 2015-Sep-07 00:00:00.0000 TDB 
 X = 1.209711583464503E+07 Y =-6.701301195149430E+07 Z =-6.585471743508913E+06
 VX= 3.816931556529962E+01 VY= 1.115096241055288E+01 VZ=-2.590690594591653E+00
 LT= 2.282039799812495E+02 RG= 6.841383208396158E+07 RR=-3.924060642154453E+00
2457273.500000000 = A.D. 2015-Sep-08 00:00:00.0000 TDB 
 X = 1.537442657266440E+07 Y =-6.594589865716971E+07 Z =-6.798954092486467E+06
 VX= 3.767334045960953E+01 VY= 1.355062792044189E+01 VZ=-2.349110793860306E+00
 LT= 2.270064885289613E+02 RG= 6.805483317804612E+07 RR=-4.385152656429877E+00
2457274.500000000 = A.D. 2015-Sep-09 00:00:00.0000 TDB 
 X = 1.860338930737941E+07 Y =-6.467153668726540E+07 Z =-6.991066473893717E+06
 VX= 3.704958528343266E+01 VY= 1.594773728668696E+01 VZ=-2.096016679711194E+00
 LT= 2.256769728890242E+02 RG= 6.765625441639991E+07 RR=-4.840105755138659E+00
2457275.500000000 = A.D. 2015-Sep-10 00:00:00.0000 TDB 
 X = 2.177281318068410E+07 Y =-6.319032085075581E+07 Z =-7.160814442942664E+06
 VX= 3.629450958446836E+01 VY= 1.833819240069641E+01 VZ=-1.831418291518231E+00
 LT= 2.242173411927972E+02 RG= 6.721866784241332E+07 RR=-5.287939345005401E+00
2457276.500000000 = A.D. 2015-Sep-11 00:00:00.0000 TDB 
 X = 2.487118781437246E+07 Y =-6.150301958441435E+07 Z =-7.307204769757416E+06
 VX= 3.540425885114318E+01 VY= 2.071742993611760E+01 VZ=-1.555334868415694E+00
 LT= 2.226297993027534E+02 RG= 6.674273475701912E+07 RR=-5.727565386808977E+00
2457277.500000000 = A.D. 2015-Sep-12 00:00:00.0000 TDB 
 X = 2.788665660417318E+07 Y =-5.961081853823553E+07 Z =-7.429246550617032E+06
 VX= 3.437467545076280E+01 VY= 2.308034152010298E+01 VZ=-1.267802375642573E+00
 LT= 2.209168839914595E+02 RG= 6.622921566550048E+07 RR=-6.157772811529330E+00
2457278.500000000 = A.D. 2015-Sep-13 00:00:00.0000 TDB 
 X = 3.080699124694352E+07 Y =-5.751537141844832E+07 Z =-7.525953025353912E+06
 VX= 3.320131654519793E+01 VY= 2.542118542027905E+01 VZ=-9.688823642966415E-01
 LT= 2.190815008114323E+02 RG= 6.567898163058826E+07 RR=-6.577210536219754E+00
2457279.500000000 = A.D. 2015-Sep-14 00:00:00.0000 TDB 
 X = 3.361956819009964E+07 Y =-5.521885885690123E+07 Z =-7.596344226944789E+06
 VX= 3.187948105501637E+01 VY= 2.773348893463902E+01 VZ=-6.586724209068944E-01
 LT= 2.171269670707578E+02 RG= 6.509302715622754E+07 RR=-6.984369007205588E+00
2457280.500000000 = A.D. 2015-Sep-15 00:00:00.0000 TDB 
 X = 3.631134789195959E+07 Y =-5.272405614100710E+07 Z =-7.639450612987656E+06
 VX= 3.040424823572696E+01 VY= 3.000994079637872E+01 VZ=-3.373184982435191E-01
 LT= 2.150570603439569E+02 RG= 6.447248473076916E+07 RR=-7.377560245020474E+00
